RASSVET-3 1
1 68360U 26061A   26106.97765221  .00067947  44384-6  26336-3 0  9997
2 68360  82.2940  81.2588 0020724 345.3472  14.7195 15.86673381  3856
RASSVET-3 2
1 68361U 26061B   26106.95984582  .00093651  19875-5  28861-3 0  9991
2 68361  82.2962  81.2366 0021924 342.3801  17.6708 15.91223222  3854
RASSVET-3 3
1 68362U 26061C   26106.95966064  .00090168  17594-5  27811-3 0  9997
2 68362  82.2962  81.2359 0021657 342.1569  17.8940 15.91214326  3854
RASSVET-3 4
1 68363U 26061D   26106.96035313  .00089852  17329-5  27974-3 0  9997
2 68363  82.2969  81.2384 0022212 342.3048  17.7448 15.91011056  3859
RASSVET-3 5
1 68364U 26061E   26106.95952535  .00089778  17329-5  27755-3 0  9995
2 68364  82.2962  81.2356 0021781 342.1510  17.8995 15.91164130  3854
RASSVET-3 6
1 68365U 26061F   26106.95779762  .00091533  18510-5  28084-3 0  9996
2 68365  82.2964  81.2333 0021521 342.3388  17.7133 15.91322992  3854
RASSVET-3 7
1 68366U 26061G   26106.95901939  .00088554  16562-5  27346-3 0  9994
2 68366  82.2961  81.2351 0021550 342.1608  17.8905 15.91194003  3855
RASSVET-3 8
1 68367U 26061H   26106.95931389  .00092082  18820-5  28470-3 0  9996
2 68367  82.2964  81.2354 0021659 341.9935  18.0568 15.91169546  3854
RASSVET-3 9
1 68368U 26061J   26106.76450703  .00089887  17594-5  26919-3 0  9994
2 68368  82.2957  81.4382 0020554 344.7763  15.2888 15.91826449  3826
RASSVET-3 10
1 68369U 26061K   26106.95904353  .00089941  17415-5  27898-3 0  9991
2 68369  82.2964  81.2354 0021614 342.0562  17.9945 15.91106440  3856
RASSVET-3 11
1 68370U 26061L   26106.95847358  .00090454  17749-5  28038-3 0  9992
2 68370  82.2965  81.2343 0021458 341.9665  18.0843 15.91125908  3854
RASSVET-3 12
1 68371U 26061M   26106.95638972  .00101790  25675-5  30927-3 0  9996
2 68371  82.2964  81.2311 0020980 341.7842  18.2676 15.91540629  3850
RASSVET-3 13
1 68372U 26061N   26106.95578775  .00091142  18298-5  27809-3 0  9998
2 68372  82.2957  81.2295 0020889 341.7121  18.3398 15.91454453  3853
RASSVET-3 14
1 68373U 26061P   26106.95458200  .00092866  19505-5  28016-3 0  9996
2 68373  82.2963  81.2282 0020645 341.7171  18.3357 15.91684193  3853
RASSVET-3 15
1 68374U 26061Q   26106.38755351  .00080527  11845-5  24331-3 0  9997
2 68374  82.2958  81.8695 0020604 344.5305  15.5335 15.91644242  3763
RASSVET-3 16
1 68375U 26061R   26106.92748030  .00053349  00000+0  24555-3 0  9999
2 68375  82.2945  81.3495 0018848 351.2478   8.8458 15.83109282  3847
