[{"OBJECT_NAME":"RASSVET-3 1","OBJECT_ID":"2026-061A","EPOCH":"2026-04-16T23:27:49.150944","MEAN_MOTION":15.86673381,"ECCENTRICITY":0.00207241,"INCLINATION":82.294,"RA_OF_ASC_NODE":81.2588,"ARG_OF_PERICENTER":345.3472,"MEAN_ANOMALY":14.7195,"EPHEMERIS_TYPE":0,"CLASSIFICATION_TYPE":"U","NORAD_CAT_ID":68360,"ELEMENT_SET_NO":999,"REV_AT_EPOCH":385,"BSTAR":0.00026336167,"MEAN_MOTION_DOT":0.00067947,"MEAN_MOTION_DDOT":4.43839e-7},{"OBJECT_NAME":"RASSVET-3 2","OBJECT_ID":"2026-061B","EPOCH":"2026-04-16T23:02:10.678848","MEAN_MOTION":15.91223222,"ECCENTRICITY":0.00219243,"INCLINATION":82.2962,"RA_OF_ASC_NODE":81.2366,"ARG_OF_PERICENTER":342.3801,"MEAN_ANOMALY":17.6708,"EPHEMERIS_TYPE":0,"CLASSIFICATION_TYPE":"U","NORAD_CAT_ID":68361,"ELEMENT_SET_NO":999,"REV_AT_EPOCH":385,"BSTAR":0.00028861132,"MEAN_MOTION_DOT":0.00093651,"MEAN_MOTION_DDOT":1.987477e-6},{"OBJECT_NAME":"RASSVET-3 3","OBJECT_ID":"2026-061C","EPOCH":"2026-04-16T23:01:54.679296","MEAN_MOTION":15.91214326,"ECCENTRICITY":0.00216575,"INCLINATION":82.2962,"RA_OF_ASC_NODE":81.2359,"ARG_OF_PERICENTER":342.1569,"MEAN_ANOMALY":17.894,"EPHEMERIS_TYPE":0,"CLASSIFICATION_TYPE":"U","NORAD_CAT_ID":68362,"ELEMENT_SET_NO":999,"REV_AT_EPOCH":385,"BSTAR":0.00027811349,"MEAN_MOTION_DOT":0.00090168,"MEAN_MOTION_DDOT":1.75936e-6},{"OBJECT_NAME":"RASSVET-3 4","OBJECT_ID":"2026-061D","EPOCH":"2026-04-16T23:02:54.510432","MEAN_MOTION":15.91011056,"ECCENTRICITY":0.00222127,"INCLINATION":82.2969,"RA_OF_ASC_NODE":81.2384,"ARG_OF_PERICENTER":342.3048,"MEAN_ANOMALY":17.7448,"EPHEMERIS_TYPE":0,"CLASSIFICATION_TYPE":"U","NORAD_CAT_ID":68363,"ELEMENT_SET_NO":999,"REV_AT_EPOCH":385,"BSTAR":0.00027973792,"MEAN_MOTION_DOT":0.00089852,"MEAN_MOTION_DDOT":1.732915e-6},{"OBJECT_NAME":"RASSVET-3 5","OBJECT_ID":"2026-061E","EPOCH":"2026-04-16T23:01:42.990240","MEAN_MOTION":15.9116413,"ECCENTRICITY":0.00217815,"INCLINATION":82.2962,"RA_OF_ASC_NODE":81.2356,"ARG_OF_PERICENTER":342.151,"MEAN_ANOMALY":17.8995,"EPHEMERIS_TYPE":0,"CLASSIFICATION_TYPE":"U","NORAD_CAT_ID":68364,"ELEMENT_SET_NO":999,"REV_AT_EPOCH":385,"BSTAR":0.00027755432,"MEAN_MOTION_DOT":0.00089778,"MEAN_MOTION_DDOT":1.732904e-6},{"OBJECT_NAME":"RASSVET-3 6","OBJECT_ID":"2026-061F","EPOCH":"2026-04-16T22:59:13.714368","MEAN_MOTION":15.91322992,"ECCENTRICITY":0.00215219,"INCLINATION":82.2964,"RA_OF_ASC_NODE":81.2333,"ARG_OF_PERICENTER":342.3388,"MEAN_ANOMALY":17.7133,"EPHEMERIS_TYPE":0,"CLASSIFICATION_TYPE":"U","NORAD_CAT_ID":68365,"ELEMENT_SET_NO":999,"REV_AT_EPOCH":385,"BSTAR":0.00028083976,"MEAN_MOTION_DOT":0.00091533,"MEAN_MOTION_DDOT":1.85097e-6},{"OBJECT_NAME":"RASSVET-3 7","OBJECT_ID":"2026-061G","EPOCH":"2026-04-16T23:00:59.275296","MEAN_MOTION":15.91194003,"ECCENTRICITY":0.00215503,"INCLINATION":82.2961,"RA_OF_ASC_NODE":81.2351,"ARG_OF_PERICENTER":342.1608,"MEAN_ANOMALY":17.8905,"EPHEMERIS_TYPE":0,"CLASSIFICATION_TYPE":"U","NORAD_CAT_ID":68366,"ELEMENT_SET_NO":999,"REV_AT_EPOCH":385,"BSTAR":0.0002734613,"MEAN_MOTION_DOT":0.00088554,"MEAN_MOTION_DDOT":1.656194e-6},{"OBJECT_NAME":"RASSVET-3 8","OBJECT_ID":"2026-061H","EPOCH":"2026-04-16T23:01:24.720096","MEAN_MOTION":15.91169546,"ECCENTRICITY":0.00216595,"INCLINATION":82.2964,"RA_OF_ASC_NODE":81.2354,"ARG_OF_PERICENTER":341.9935,"MEAN_ANOMALY":18.0568,"EPHEMERIS_TYPE":0,"CLASSIFICATION_TYPE":"U","NORAD_CAT_ID":68367,"ELEMENT_SET_NO":999,"REV_AT_EPOCH":385,"BSTAR":0.00028469526,"MEAN_MOTION_DOT":0.00092082,"MEAN_MOTION_DDOT":1.882005e-6},{"OBJECT_NAME":"RASSVET-3 9","OBJECT_ID":"2026-061J","EPOCH":"2026-04-16T18:20:53.407392","MEAN_MOTION":15.91826449,"ECCENTRICITY":0.00205542,"INCLINATION":82.2957,"RA_OF_ASC_NODE":81.4382,"ARG_OF_PERICENTER":344.7763,"MEAN_ANOMALY":15.2888,"EPHEMERIS_TYPE":0,"CLASSIFICATION_TYPE":"U","NORAD_CAT_ID":68368,"ELEMENT_SET_NO":999,"REV_AT_EPOCH":382,"BSTAR":0.00026919292,"MEAN_MOTION_DOT":0.00089887,"MEAN_MOTION_DDOT":1.759432e-6},{"OBJECT_NAME":"RASSVET-3 10","OBJECT_ID":"2026-061K","EPOCH":"2026-04-16T23:01:01.360992","MEAN_MOTION":15.9110644,"ECCENTRICITY":0.00216142,"INCLINATION":82.2964,"RA_OF_ASC_NODE":81.2354,"ARG_OF_PERICENTER":342.0562,"MEAN_ANOMALY":17.9945,"EPHEMERIS_TYPE":0,"CLASSIFICATION_TYPE":"U","NORAD_CAT_ID":68369,"ELEMENT_SET_NO":999,"REV_AT_EPOCH":385,"BSTAR":0.00027898202,"MEAN_MOTION_DOT":0.00089941,"MEAN_MOTION_DDOT":1.741503e-6},{"OBJECT_NAME":"RASSVET-3 11","OBJECT_ID":"2026-061L","EPOCH":"2026-04-16T23:00:12.117312","MEAN_MOTION":15.91125908,"ECCENTRICITY":0.00214585,"INCLINATION":82.2965,"RA_OF_ASC_NODE":81.2343,"ARG_OF_PERICENTER":341.9665,"MEAN_ANOMALY":18.0843,"EPHEMERIS_TYPE":0,"CLASSIFICATION_TYPE":"U","NORAD_CAT_ID":68370,"ELEMENT_SET_NO":999,"REV_AT_EPOCH":385,"BSTAR":0.0002803825,"MEAN_MOTION_DOT":0.00090454,"MEAN_MOTION_DDOT":1.77489e-6},{"OBJECT_NAME":"RASSVET-3 12","OBJECT_ID":"2026-061M","EPOCH":"2026-04-16T22:57:12.071808","MEAN_MOTION":15.91540629,"ECCENTRICITY":0.002098,"INCLINATION":82.2964,"RA_OF_ASC_NODE":81.2311,"ARG_OF_PERICENTER":341.7842,"MEAN_ANOMALY":18.2676,"EPHEMERIS_TYPE":0,"CLASSIFICATION_TYPE":"U","NORAD_CAT_ID":68371,"ELEMENT_SET_NO":999,"REV_AT_EPOCH":385,"BSTAR":0.00030927346,"MEAN_MOTION_DOT":0.0010179,"MEAN_MOTION_DDOT":2.567492e-6},{"OBJECT_NAME":"RASSVET-3 13","OBJECT_ID":"2026-061N","EPOCH":"2026-04-16T22:56:20.061600","MEAN_MOTION":15.91454453,"ECCENTRICITY":0.00208892,"INCLINATION":82.2957,"RA_OF_ASC_NODE":81.2295,"ARG_OF_PERICENTER":341.7121,"MEAN_ANOMALY":18.3398,"EPHEMERIS_TYPE":0,"CLASSIFICATION_TYPE":"U","NORAD_CAT_ID":68372,"ELEMENT_SET_NO":999,"REV_AT_EPOCH":385,"BSTAR":0.00027808897,"MEAN_MOTION_DOT":0.00091142,"MEAN_MOTION_DDOT":1.829815e-6},{"OBJECT_NAME":"RASSVET-3 14","OBJECT_ID":"2026-061P","EPOCH":"2026-04-16T22:54:35.884800","MEAN_MOTION":15.91684193,"ECCENTRICITY":0.00206456,"INCLINATION":82.2963,"RA_OF_ASC_NODE":81.2282,"ARG_OF_PERICENTER":341.7171,"MEAN_ANOMALY":18.3357,"EPHEMERIS_TYPE":0,"CLASSIFICATION_TYPE":"U","NORAD_CAT_ID":68373,"ELEMENT_SET_NO":999,"REV_AT_EPOCH":385,"BSTAR":0.00028015657,"MEAN_MOTION_DOT":0.00092866,"MEAN_MOTION_DDOT":1.950536e-6},{"OBJECT_NAME":"RASSVET-3 15","OBJECT_ID":"2026-061Q","EPOCH":"2026-04-16T09:18:04.623264","MEAN_MOTION":15.91644242,"ECCENTRICITY":0.00206049,"INCLINATION":82.2958,"RA_OF_ASC_NODE":81.8695,"ARG_OF_PERICENTER":344.5305,"MEAN_ANOMALY":15.5335,"EPHEMERIS_TYPE":0,"CLASSIFICATION_TYPE":"U","NORAD_CAT_ID":68374,"ELEMENT_SET_NO":999,"REV_AT_EPOCH":376,"BSTAR":0.00024331291,"MEAN_MOTION_DOT":0.00080527,"MEAN_MOTION_DDOT":1.184539e-6},{"OBJECT_NAME":"RASSVET-3 16","OBJECT_ID":"2026-061R","EPOCH":"2026-04-16T22:15:34.297920","MEAN_MOTION":15.83109282,"ECCENTRICITY":0.00188489,"INCLINATION":82.2945,"RA_OF_ASC_NODE":81.3495,"ARG_OF_PERICENTER":351.2478,"MEAN_ANOMALY":8.8458,"EPHEMERIS_TYPE":0,"CLASSIFICATION_TYPE":"U","NORAD_CAT_ID":68375,"ELEMENT_SET_NO":999,"REV_AT_EPOCH":384,"BSTAR":0.0002455484,"MEAN_MOTION_DOT":0.00053349,"MEAN_MOTION_DDOT":0}]
